{"type": "FeatureCollection", "features": [ {"type": "Feature", "properties": {"norad_id": 38953, "name": "BEIDOU-2 G6 (C02)", "group": "beidou", "lat": -3.8947581385010226, "lon": -25.94298859827325, "alt_km": 35758.582401095926, "timestamp": "2025-12-18T10:51:26.071332+00:00", "meta": {"OBJECT_NAME": "BEIDOU-2 G6 (C02)", "OBJECT_ID": "2012-059A", "EPOCH": "2025-12-17T21:33:21.777408", "MEAN_MOTION": 1.00269429, "ECCENTRICITY": 0.00081829, "INCLINATION": 3.962, "RA_OF_ASC_NODE": 75.4564, "ARG_OF_PERICENTER": 291.7918, "MEAN_ANOMALY": 126.8318, "EPHEMERIS_TYPE": 0, "CLASSIFICATION_TYPE": "U", "NORAD_CAT_ID": 38953, "ELEMENT_SET_NO": 999, "REV_AT_EPOCH": 4809, "BSTAR": 0, "MEAN_MOTION_DOT": -1.53e-06, "MEAN_MOTION_DDOT": 0}, "tle": {"line1": "1 38953U 12059A   25351.89816872 -.00000153  00000+0  00000+0 0  9998", "line2": "2 38953   3.9620  75.4564 0008182 291.7918 126.8318  1.00269429 48090"}}, "geometry": {"type": "Point", "coordinates": [-25.94298859827325, -3.8947581385010226]}}, {"type": "Feature", "properties": {"norad_id": 40549, "name": "BEIDOU-3S IGSO-1S (C31)", "group": "beidou", "lat": 33.65262791256668, "lon": -27.843325804932643, "alt_km": 35904.62289009094, "timestamp": "2025-12-18T10:51:26.071344+00:00", "meta": {"OBJECT_NAME": "BEIDOU-3S IGSO-1S (C31)", "OBJECT_ID": "2015-019A", "EPOCH": "2025-12-16T22:00:09.125856", "MEAN_MOTION": 1.00292577, "ECCENTRICITY": 0.00363578, "INCLINATION": 49.5427, "RA_OF_ASC_NODE": 297.6612, "ARG_OF_PERICENTER": 193.8033, "MEAN_ANOMALY": 18.6613, "EPHEMERIS_TYPE": 0, "CLASSIFICATION_TYPE": "U", "NORAD_CAT_ID": 40549, "ELEMENT_SET_NO": 999, "REV_AT_EPOCH": 3924, "BSTAR": 0, "MEAN_MOTION_DOT": -1.91e-06, "MEAN_MOTION_DDOT": 0}, "tle": {"line1": "1 40549U 15019A   25350.91677229 -.00000191  00000+0  00000+0 0  9996", "line2": "2 40549  49.5427 297.6612 0036357 193.8033  18.6613  1.00292577 39245"}}, "geometry": {"type": "Point", "coordinates": [-27.843325804932643, 33.65262791256668]}}, {"type": "Feature", "properties": {"norad_id": 40748, "name": "BEIDOU-3S M2S (C58)", "group": "beidou", "lat": 41.903655631228744, "lon": -12.894992034319799, "alt_km": 21551.918420891132, "timestamp": "2025-12-18T10:51:26.071356+00:00", "meta": {"OBJECT_NAME": "BEIDOU-3S M2S (C58)", "OBJECT_ID": "2015-037A", "EPOCH": "2025-12-11T22:15:26.437248", "MEAN_MOTION": 1.8622897, "ECCENTRICITY": 0.00123447, "INCLINATION": 55.0397, "RA_OF_ASC_NODE": 308.4912, "ARG_OF_PERICENTER": 267.8245, "MEAN_ANOMALY": 92.025, "EPHEMERIS_TYPE": 0, "CLASSIFICATION_TYPE": "U", "NORAD_CAT_ID": 40748, "ELEMENT_SET_NO": 999, "REV_AT_EPOCH": 7063, "BSTAR": 0, "MEAN_MOTION_DOT": -8.9e-07, "MEAN_MOTION_DDOT": 0}, "tle": {"line1": "1 40748U 15037A   25345.92738932 -.00000089  00000+0  00000+0 0  9997", "line2": "2 40748  55.0397 308.4912 0012344 267.8245  92.0250  1.86228970 70636"}}, "geometry": {"type": "Point", "coordinates": [-12.894992034319799, 41.903655631228744]}}, {"type": "Feature", "properties": {"norad_id": 40749, "name": "BEIDOU-3S M1S (C57)", "group": "beidou", "lat": -53.99702736227422, "lon": -157.52886751613292, "alt_km": 21532.804639788315, "timestamp": "2025-12-18T10:51:26.071368+00:00", "meta": {"OBJECT_NAME": "BEIDOU-3S M1S (C57)", "OBJECT_ID": "2015-037B", "EPOCH": "2025-12-11T14:53:54.000096", "MEAN_MOTION": 1.86253918, "ECCENTRICITY": 0.00034406, "INCLINATION": 55.0364, "RA_OF_ASC_NODE": 308.4915, "ARG_OF_PERICENTER": 358.1692, "MEAN_ANOMALY": 1.8205, "EPHEMERIS_TYPE": 0, "CLASSIFICATION_TYPE": "U", "NORAD_CAT_ID": 40749, "ELEMENT_SET_NO": 999, "REV_AT_EPOCH": 7063, "BSTAR": 0, "MEAN_MOTION_DOT": -8.8e-07, "MEAN_MOTION_DDOT": 0}, "tle": {"line1": "1 40749U 15037B   25345.62076389 -.00000088  00000+0  00000+0 0  9995", "line2": "2 40749  55.0364 308.4915 0003440 358.1692   1.8205  1.86253918 70639"}}, "geometry": {"type": "Point", "coordinates": [-157.52886751613292, -53.99702736227422]}}, {"type": "Feature", "properties": {"norad_id": 40938, "name": "BEIDOU-3S IGSO-2S (C56)", "group": "beidou", "lat": 49.23087646435658, "lon": -17.64272270139934, "alt_km": 35842.76755592722, "timestamp": "2025-12-18T10:51:26.071380+00:00", "meta": {"OBJECT_NAME": "BEIDOU-3S IGSO-2S (C56)", "OBJECT_ID": "2015-053A", "EPOCH": "2025-12-17T17:12:22.751136", "MEAN_MOTION": 1.00269192, "ECCENTRICITY": 0.00604784, "INCLINATION": 49.5029, "RA_OF_ASC_NODE": 260.9465, "ARG_OF_PERICENTER": 188.653, "MEAN_ANOMALY": 351.012, "EPHEMERIS_TYPE": 0, "CLASSIFICATION_TYPE": "U", "NORAD_CAT_ID": 40938, "ELEMENT_SET_NO": 999, "REV_AT_EPOCH": 3753, "BSTAR": 0, "MEAN_MOTION_DOT": -1.26e-06, "MEAN_MOTION_DDOT": 0}, "tle": {"line1": "1 40938U 15053A   25351.71692999 -.00000126  00000+0  00000+0 0  9994", "line2": "2 40938  49.5029 260.9465 0060478 188.6530 351.0120  1.00269192 37533"}}, "geometry": {"type": "Point", "coordinates": [-17.64272270139934, 49.23087646435658]}}, {"type": "Feature", "properties": {"norad_id": 41434, "name": "BEIDOU-2 IGSO-6 (C13)", "group": "beidou", "lat": -45.73394708555013, "lon": 3.5346238005764485, "alt_km": 35714.35530997563, "timestamp": "2025-12-18T10:51:26.071392+00:00", "meta": {"OBJECT_NAME": "BEIDOU-2 IGSO-6 (C13)", "OBJECT_ID": "2016-021A", "EPOCH": "2025-12-11T15:29:12.615360", "MEAN_MOTION": 1.00293077, "ECCENTRICITY": 0.00608616, "INCLINATION": 59.9644, "RA_OF_ASC_NODE": 39.9082, "ARG_OF_PERICENTER": 229.9753, "MEAN_ANOMALY": 135.9177, "EPHEMERIS_TYPE": 0, "CLASSIFICATION_TYPE": "U", "NORAD_CAT_ID": 41434, "ELEMENT_SET_NO": 999, "REV_AT_EPOCH": 3560, "BSTAR": 0, "MEAN_MOTION_DOT": -1.62e-06, "MEAN_MOTION_DDOT": 0}, "tle": {"line1": "1 41434U 16021A   25345.64528490 -.00000162  00000+0  00000+0 0  9991", "line2": "2 41434  59.9644  39.9082 0060861 229.9753 135.9177  1.00293077 35600"}}, "geometry": {"type": "Point", "coordinates": [3.5346238005764485, -45.73394708555013]}}, {"type": "Feature", "properties": {"norad_id": 41586, "name": "BEIDOU-2 G7 (C03)", "group": "beidou", "lat": -1.6277360271867058, "lon": 0.5712191893113924, "alt_km": 35778.94380932357, "timestamp": "2025-12-18T10:51:26.071405+00:00", "meta": {"OBJECT_NAME": "BEIDOU-2 G7 (C03)", "OBJECT_ID": "2016-037A", "EPOCH": "2025-12-17T20:42:00.687744", "MEAN_MOTION": 1.002729, "ECCENTRICITY": 0.00050936, "INCLINATION": 1.7692, "RA_OF_ASC_NODE": 67.828, "ARG_OF_PERICENTER": 3.3357, "MEAN_ANOMALY": 76.5228, "EPHEMERIS_TYPE": 0, "CLASSIFICATION_TYPE": "U", "NORAD_CAT_ID": 41586, "ELEMENT_SET_NO": 999, "REV_AT_EPOCH": 507, "BSTAR": 0, "MEAN_MOTION_DOT": -3.3e-06, "MEAN_MOTION_DDOT": 0}, "tle": {"line1": "1 41586U 16037A   25351.86250796 -.00000330  00000+0  00000+0 0  9995", "line2": "2 41586   1.7692  67.8280 0005093   3.3357  76.5228  1.00272900  5073"}}, "geometry": {"type": "Point", "coordinates": [0.5712191893113924, -1.6277360271867058]}}, {"type": "Feature", "properties": {"norad_id": 43001, "name": "BEIDOU-3 M1 (C19)", "group": "beidou", "lat": -2.5560519287616685, "lon": -109.25192828055921, "alt_km": 21541.582771456284, "timestamp": "2025-12-18T10:51:26.071418+00:00", "meta": {"OBJECT_NAME": "BEIDOU-3 M1 (C19)", "OBJECT_ID": "2017-069A", "EPOCH": "2025-12-17T02:31:31.300896", "MEAN_MOTION": 1.86231373, "ECCENTRICITY": 0.00093891, "INCLINATION": 56.5309, "RA_OF_ASC_NODE": 69.0894, "ARG_OF_PERICENTER": 302.653, "MEAN_ANOMALY": 57.2803, "EPHEMERIS_TYPE": 0, "CLASSIFICATION_TYPE": "U", "NORAD_CAT_ID": 43001, "ELEMENT_SET_NO": 999, "REV_AT_EPOCH": 5521, "BSTAR": 0, "MEAN_MOTION_DOT": -7.5e-07, "MEAN_MOTION_DDOT": 0}, "tle": {"line1": "1 43001U 17069A   25351.10522339 -.00000075  00000+0  00000+0 0  9993", "line2": "2 43001  56.5309  69.0894 0009389 302.6530  57.2803  1.86231373 55214"}}, "geometry": {"type": "Point", "coordinates": [-109.25192828055921, -2.5560519287616685]}}, {"type": "Feature", "properties": {"norad_id": 43002, "name": "BEIDOU-3 M2 (C20)", "group": "beidou", "lat": -35.75631962383786, "lon": -82.50788578686632, "alt_km": 21537.60863701388, "timestamp": "2025-12-18T10:51:26.071432+00:00", "meta": {"OBJECT_NAME": "BEIDOU-3 M2 (C20)", "OBJECT_ID": "2017-069B", "EPOCH": "2025-12-17T13:55:59.807712", "MEAN_MOTION": 1.86230965, "ECCENTRICITY": 0.00064552, "INCLINATION": 56.531, "RA_OF_ASC_NODE": 69.1097, "ARG_OF_PERICENTER": 330.9303, "MEAN_ANOMALY": 29.0595, "EPHEMERIS_TYPE": 0, "CLASSIFICATION_TYPE": "U", "NORAD_CAT_ID": 43002, "ELEMENT_SET_NO": 999, "REV_AT_EPOCH": 5521, "BSTAR": 0, "MEAN_MOTION_DOT": -7.1e-07, "MEAN_MOTION_DDOT": 0}, "tle": {"line1": "1 43002U 17069B   25351.58055333 -.00000071  00000+0  00000+0 0  9997", "line2": "2 43002  56.5310  69.1097 0006455 330.9303  29.0595  1.86230965 55217"}}, "geometry": {"type": "Point", "coordinates": [-82.50788578686632, -35.75631962383786]}}, {"type": "Feature", "properties": {"norad_id": 43107, "name": "BEIDOU-3 M7 (C27)", "group": "beidou", "lat": 29.24490859827656, "lon": -27.86544873132272, "alt_km": 21517.89832091796, "timestamp": "2025-12-18T10:51:26.071459+00:00", "meta": {"OBJECT_NAME": "BEIDOU-3 M7 (C27)", "OBJECT_ID": "2018-003A", "EPOCH": "2025-12-17T07:45:51.117120", "MEAN_MOTION": 1.86232475, "ECCENTRICITY": 0.00027428, "INCLINATION": 54.4925, "RA_OF_ASC_NODE": 308.6547, "ARG_OF_PERICENTER": 69.5375, "MEAN_ANOMALY": 290.4783, "EPHEMERIS_TYPE": 0, "CLASSIFICATION_TYPE": "U", "NORAD_CAT_ID": 43107, "ELEMENT_SET_NO": 999, "REV_AT_EPOCH": 5396, "BSTAR": 0, "MEAN_MOTION_DOT": -9.2e-07, "MEAN_MOTION_DDOT": 0}, "tle": {"line1": "1 43107U 18003A   25351.32350830 -.00000092  00000+0  00000+0 0  9997", "line2": "2 43107  54.4925 308.6547 0002742  69.5375 290.4783  1.86232475 53963"}}, "geometry": {"type": "Point", "coordinates": [-27.86544873132272, 29.24490859827656]}}]}